{
    "links": {
        "self": "http://www.neowsapp.com/rest/v1/neo/3610176?api_key=iIulBulltgU6a56xZRHN4H3l9WmuAYTsLGpBGhQ2"
    },
    "id": "3610176",
    "neo_reference_id": "3610176",
    "name": "(2012 TG79)",
    "designation": "2012 TG79",
    "nasa_jpl_url": "http://ssd.jpl.nasa.gov/sbdb.cgi?sstr=3610176",
    "absolute_magnitude_h": 26.7,
    "estimated_diameter": {
        "kilometers": {
            "estimated_diameter_min": 0.0121494041,
            "estimated_diameter_max": 0.0271668934
        },
        "meters": {
            "estimated_diameter_min": 12.14940408,
            "estimated_diameter_max": 27.1668934089
        },
        "miles": {
            "estimated_diameter_min": 0.0075492874,
            "estimated_diameter_max": 0.0168807197
        },
        "feet": {
            "estimated_diameter_min": 39.8602508817,
            "estimated_diameter_max": 89.1302305717
        }
    },
    "is_potentially_hazardous_asteroid": false,
    "close_approach_data": [
        {
            "close_approach_date": "2012-10-10",
            "close_approach_date_full": "2012-Oct-10 09:56",
            "epoch_date_close_approach": 1349862960000,
            "relative_velocity": {
                "kilometers_per_second": "6.9014877286",
                "kilometers_per_hour": "24845.3558228588",
                "miles_per_hour": "15437.9379000424"
            },
            "miss_distance": {
                "astronomical": "0.0400587228",
                "lunar": "15.5828431692",
                "kilometers": "5992699.605800436",
                "miles": "3723690.8652045768"
            },
            "orbiting_body": "Earth"
        }
    ],
    "orbital_data": {
        "orbit_id": "5",
        "orbit_determination_date": "2019-07-19 05:25:42",
        "first_observation_date": "2012-10-09",
        "last_observation_date": "2012-10-11",
        "data_arc_in_days": 2,
        "observations_used": 29,
        "orbit_uncertainty": "8",
        "minimum_orbit_intersection": ".039773",
        "jupiter_tisserand_invariant": "3.245",
        "epoch_osculation": "2456210.5",
        "eccentricity": ".5763386556450879",
        "semi_major_axis": "2.450309234076941",
        "inclination": "1.058872889235013",
        "ascending_node_longitude": "2.426310313848909",
        "orbital_period": "1400.97302061047",
        "perihelion_distance": "1.038101304194292",
        "perihelion_argument": "15.78826215032208",
        "aphelion_distance": "3.86251716395959",
        "perihelion_time": "2456211.785463930810",
        "mean_anomaly": "359.6696817081531",
        "mean_motion": ".256964263196968",
        "equinox": "J2000",
        "orbit_class": {
            "orbit_class_type": "AMO",
            "orbit_class_description": "Near-Earth asteroid orbits similar to that of 1221 Amor",
            "orbit_class_range": "1.017 AU < q (perihelion) < 1.3 AU"
        }
    },
    "is_sentry_object": false
}